<?xml version="1.0" encoding="UTF-8"?>
<ndm xmlns:xsi="http://www.w3.org/2001/XMLSchema-instance" xsi:noNamespaceSchemaLocation="https://sanaregistry.org/r/ndmxml/ndmxml-1.0-master.xsd">
<omm id="CCSDS_OMM_VERS" version="2.0">
<header><CREATION_DATE/><ORIGINATOR/></header><body><segment><metadata><OBJECT_NAME>VCC B</OBJECT_NAME><OBJECT_ID>1998-067QR</OBJECT_ID><CENTER_NAME>EARTH</CENTER_NAME><REF_FRAME>TEME</REF_FRAME><TIME_SYSTEM>UTC</TIME_SYSTEM><MEAN_ELEMENT_THEORY>SGP4</MEAN_ELEMENT_THEORY></metadata><data><meanElements><EPOCH>2020-12-15T04:05:22.924608</EPOCH><MEAN_MOTION>15.62834016</MEAN_MOTION><ECCENTRICITY>.0002722</ECCENTRICITY><INCLINATION>51.6344</INCLINATION><RA_OF_ASC_NODE>147.6595</RA_OF_ASC_NODE><ARG_OF_PERICENTER>273.3826</ARG_OF_PERICENTER><MEAN_ANOMALY>86.6857</MEAN_ANOMALY></meanElements><tleParameters><EPHEMERIS_TYPE>0</EPHEMERIS_TYPE><CLASSIFICATION_TYPE>U</CLASSIFICATION_TYPE><NORAD_CAT_ID>44431</NORAD_CAT_ID><ELEMENT_SET_NO>999</ELEMENT_SET_NO><REV_AT_EPOCH>8264</REV_AT_EPOCH><BSTAR>.28095E-3</BSTAR><MEAN_MOTION_DOT>.25387E-3</MEAN_MOTION_DOT><MEAN_MOTION_DDOT>0</MEAN_MOTION_DDOT></tleParameters></data></segment></body></omm>
<omm id="CCSDS_OMM_VERS" version="2.0">
<header><CREATION_DATE/><ORIGINATOR/></header><body><segment><metadata><OBJECT_NAME>ISS DEB</OBJECT_NAME><OBJECT_ID>1998-067QT</OBJECT_ID><CENTER_NAME>EARTH</CENTER_NAME><REF_FRAME>TEME</REF_FRAME><TIME_SYSTEM>UTC</TIME_SYSTEM><MEAN_ELEMENT_THEORY>SGP4</MEAN_ELEMENT_THEORY></metadata><data><meanElements><EPOCH>2020-12-15T03:52:20.110368</EPOCH><MEAN_MOTION>15.65142872</MEAN_MOTION><ECCENTRICITY>.0004314</ECCENTRICITY><INCLINATION>51.6359</INCLINATION><RA_OF_ASC_NODE>154.3494</RA_OF_ASC_NODE><ARG_OF_PERICENTER>283.6757</ARG_OF_PERICENTER><MEAN_ANOMALY>76.3758</MEAN_ANOMALY></meanElements><tleParameters><EPHEMERIS_TYPE>0</EPHEMERIS_TYPE><CLASSIFICATION_TYPE>U</CLASSIFICATION_TYPE><NORAD_CAT_ID>44788</NORAD_CAT_ID><ELEMENT_SET_NO>999</ELEMENT_SET_NO><REV_AT_EPOCH>6158</REV_AT_EPOCH><BSTAR>.46845E-3</BSTAR><MEAN_MOTION_DOT>.46935E-3</MEAN_MOTION_DOT><MEAN_MOTION_DDOT>0</MEAN_MOTION_DDOT></tleParameters></data></segment></body></omm>
<omm id="CCSDS_OMM_VERS" version="2.0">
<header><CREATION_DATE/><ORIGINATOR/></header><body><segment><metadata><OBJECT_NAME>ISS DEB</OBJECT_NAME><OBJECT_ID>1998-067QU</OBJECT_ID><CENTER_NAME>EARTH</CENTER_NAME><REF_FRAME>TEME</REF_FRAME><TIME_SYSTEM>UTC</TIME_SYSTEM><MEAN_ELEMENT_THEORY>SGP4</MEAN_ELEMENT_THEORY></metadata><data><meanElements><EPOCH>2020-12-14T04:21:10.101024</EPOCH><MEAN_MOTION>15.63643090</MEAN_MOTION><ECCENTRICITY>.000485</ECCENTRICITY><INCLINATION>51.6356</INCLINATION><RA_OF_ASC_NODE>160.5801</RA_OF_ASC_NODE><ARG_OF_PERICENTER>287.3530</ARG_OF_PERICENTER><MEAN_ANOMALY>72.6934</MEAN_ANOMALY></meanElements><tleParameters><EPHEMERIS_TYPE>0</EPHEMERIS_TYPE><CLASSIFICATION_TYPE>U</CLASSIFICATION_TYPE><NORAD_CAT_ID>44789</NORAD_CAT_ID><ELEMENT_SET_NO>999</ELEMENT_SET_NO><REV_AT_EPOCH>6140</REV_AT_EPOCH><BSTAR>.44929E-3</BSTAR><MEAN_MOTION_DOT>.42356E-3</MEAN_MOTION_DOT><MEAN_MOTION_DDOT>0</MEAN_MOTION_DDOT></tleParameters></data></segment></body></omm>
<omm id="CCSDS_OMM_VERS" version="2.0">
<header><CREATION_DATE/><ORIGINATOR/></header><body><segment><metadata><OBJECT_NAME>RWASAT-1</OBJECT_NAME><OBJECT_ID>1998-067QV</OBJECT_ID><CENTER_NAME>EARTH</CENTER_NAME><REF_FRAME>TEME</REF_FRAME><TIME_SYSTEM>UTC</TIME_SYSTEM><MEAN_ELEMENT_THEORY>SGP4</MEAN_ELEMENT_THEORY></metadata><data><meanElements><EPOCH>2020-12-15T05:26:18.600288</EPOCH><MEAN_MOTION>15.55507559</MEAN_MOTION><ECCENTRICITY>.0006792</ECCENTRICITY><INCLINATION>51.6398</INCLINATION><RA_OF_ASC_NODE>162.6883</RA_OF_ASC_NODE><ARG_OF_PERICENTER>329.0919</ARG_OF_PERICENTER><MEAN_ANOMALY>201.7389</MEAN_ANOMALY></meanElements><tleParameters><EPHEMERIS_TYPE>0</EPHEMERIS_TYPE><CLASSIFICATION_TYPE>U</CLASSIFICATION_TYPE><NORAD_CAT_ID>44790</NORAD_CAT_ID><ELEMENT_SET_NO>999</ELEMENT_SET_NO><REV_AT_EPOCH>6073</REV_AT_EPOCH><BSTAR>.15478E-3</BSTAR><MEAN_MOTION_DOT>.10309E-3</MEAN_MOTION_DOT><MEAN_MOTION_DDOT>0</MEAN_MOTION_DDOT></tleParameters></data></segment></body></omm>
<omm id="CCSDS_OMM_VERS" version="2.0">
<header><CREATION_DATE/><ORIGINATOR/></header><body><segment><metadata><OBJECT_NAME>AQT-D</OBJECT_NAME><OBJECT_ID>1998-067QW</OBJECT_ID><CENTER_NAME>EARTH</CENTER_NAME><REF_FRAME>TEME</REF_FRAME><TIME_SYSTEM>UTC</TIME_SYSTEM><MEAN_ELEMENT_THEORY>SGP4</MEAN_ELEMENT_THEORY></metadata><data><meanElements><EPOCH>2020-12-14T21:59:12.813792</EPOCH><MEAN_MOTION>15.55508331</MEAN_MOTION><ECCENTRICITY>.0005935</ECCENTRICITY><INCLINATION>51.6397</INCLINATION><RA_OF_ASC_NODE>164.7720</RA_OF_ASC_NODE><ARG_OF_PERICENTER>296.6973</ARG_OF_PERICENTER><MEAN_ANOMALY>63.3410</MEAN_ANOMALY></meanElements><tleParameters><EPHEMERIS_TYPE>0</EPHEMERIS_TYPE><CLASSIFICATION_TYPE>U</CLASSIFICATION_TYPE><NORAD_CAT_ID>44791</NORAD_CAT_ID><ELEMENT_SET_NO>999</ELEMENT_SET_NO><REV_AT_EPOCH>6068</REV_AT_EPOCH><BSTAR>.15849E-3</BSTAR><MEAN_MOTION_DOT>.10567E-3</MEAN_MOTION_DOT><MEAN_MOTION_DDOT>0</MEAN_MOTION_DDOT></tleParameters></data></segment></body></omm>
<omm id="CCSDS_OMM_VERS" version="2.0">
<header><CREATION_DATE/><ORIGINATOR/></header><body><segment><metadata><OBJECT_NAME>NARSSCUBE-1</OBJECT_NAME><OBJECT_ID>1998-067QX</OBJECT_ID><CENTER_NAME>EARTH</CENTER_NAME><REF_FRAME>TEME</REF_FRAME><TIME_SYSTEM>UTC</TIME_SYSTEM><MEAN_ELEMENT_THEORY>SGP4</MEAN_ELEMENT_THEORY></metadata><data><meanElements><EPOCH>2020-12-14T22:35:16.520352</EPOCH><MEAN_MOTION>15.57953541</MEAN_MOTION><ECCENTRICITY>.0004052</ECCENTRICITY><INCLINATION>51.6367</INCLINATION><RA_OF_ASC_NODE>161.8856</RA_OF_ASC_NODE><ARG_OF_PERICENTER>313.4164</ARG_OF_PERICENTER><MEAN_ANOMALY>46.6490</MEAN_ANOMALY></meanElements><tleParameters><EPHEMERIS_TYPE>0</EPHEMERIS_TYPE><CLASSIFICATION_TYPE>U</CLASSIFICATION_TYPE><NORAD_CAT_ID>44792</NORAD_CAT_ID><ELEMENT_SET_NO>999</ELEMENT_SET_NO><REV_AT_EPOCH>6072</REV_AT_EPOCH><BSTAR>.24241E-3</BSTAR><MEAN_MOTION_DOT>.18032E-3</MEAN_MOTION_DOT><MEAN_MOTION_DDOT>0</MEAN_MOTION_DDOT></tleParameters></data></segment></body></omm>
<omm id="CCSDS_OMM_VERS" version="2.0">
<header><CREATION_DATE/><ORIGINATOR/></header><body><segment><metadata><OBJECT_NAME>STPSAT-4</OBJECT_NAME><OBJECT_ID>1998-067QY</OBJECT_ID><CENTER_NAME>EARTH</CENTER_NAME><REF_FRAME>TEME</REF_FRAME><TIME_SYSTEM>UTC</TIME_SYSTEM><MEAN_ELEMENT_THEORY>SGP4</MEAN_ELEMENT_THEORY></metadata><data><meanElements><EPOCH>2020-12-15T00:32:32.463744</EPOCH><MEAN_MOTION>15.51678735</MEAN_MOTION><ECCENTRICITY>.0004827</ECCENTRICITY><INCLINATION>51.6392</INCLINATION><RA_OF_ASC_NODE>171.4160</RA_OF_ASC_NODE><ARG_OF_PERICENTER>314.7416</ARG_OF_PERICENTER><MEAN_ANOMALY>45.3181</MEAN_ANOMALY></meanElements><tleParameters><EPHEMERIS_TYPE>0</EPHEMERIS_TYPE><CLASSIFICATION_TYPE>U</CLASSIFICATION_TYPE><NORAD_CAT_ID>45043</NORAD_CAT_ID><ELEMENT_SET_NO>999</ELEMENT_SET_NO><REV_AT_EPOCH>4984</REV_AT_EPOCH><BSTAR>.10443E-3</BSTAR><MEAN_MOTION_DOT>.5867E-4</MEAN_MOTION_DOT><MEAN_MOTION_DDOT>0</MEAN_MOTION_DDOT></tleParameters></data></segment></body></omm>
<omm id="CCSDS_OMM_VERS" version="2.0">
<header><CREATION_DATE/><ORIGINATOR/></header><body><segment><metadata><OBJECT_NAME>HARP</OBJECT_NAME><OBJECT_ID>1998-067QZ</OBJECT_ID><CENTER_NAME>EARTH</CENTER_NAME><REF_FRAME>TEME</REF_FRAME><TIME_SYSTEM>UTC</TIME_SYSTEM><MEAN_ELEMENT_THEORY>SGP4</MEAN_ELEMENT_THEORY></metadata><data><meanElements><EPOCH>2020-12-14T23:20:35.718432</EPOCH><MEAN_MOTION>15.53993307</MEAN_MOTION><ECCENTRICITY>.0006438</ECCENTRICITY><INCLINATION>51.6397</INCLINATION><RA_OF_ASC_NODE>168.8640</RA_OF_ASC_NODE><ARG_OF_PERICENTER>304.4994</ARG_OF_PERICENTER><MEAN_ANOMALY>55.5388</MEAN_ANOMALY></meanElements><tleParameters><EPHEMERIS_TYPE>0</EPHEMERIS_TYPE><CLASSIFICATION_TYPE>U</CLASSIFICATION_TYPE><NORAD_CAT_ID>45256</NORAD_CAT_ID><ELEMENT_SET_NO>999</ELEMENT_SET_NO><REV_AT_EPOCH>4654</REV_AT_EPOCH><BSTAR>.12205E-3</BSTAR><MEAN_MOTION_DOT>.7571E-4</MEAN_MOTION_DOT><MEAN_MOTION_DDOT>0</MEAN_MOTION_DDOT></tleParameters></data></segment></body></omm>

</ndm>
